ONEWEB-0210             
1 48787U 21045W   25242.15672910 -.00000067  00000+0 -21329-3 0  9996
2 48787  87.9065 317.2324 0001860  76.3732 283.7606 13.15547852206052
ONEWEB-0214             
1 48788U 21045X   25242.16542962 -.00000154  00000+0 -44394-3 0  9995
2 48788  87.9057 317.2183 0002028  85.6497 274.4865 13.15551164206027
ONEWEB-0221             
1 48789U 21045Y   25241.94440851 -.00000003  00000+0 -42640-4 0  9991
2 48789  87.9052 317.2896 0001732  93.1659 266.9670 13.15549596206081
ONEWEB-0213             
1 48790U 21045Z   25242.16148530 -.00000084  00000+0 -25658-3 0  9995
2 48790  87.9052 317.2547 0001775  89.8065 270.3269 13.15548423206177
ONEWEB-0212             
1 48791U 21045AA  25242.13850852  .00000059  00000+0  12395-3 0  9994
2 48791  87.9057 317.2417 0001868  99.7690 260.3651 13.15547315206168
ONEWEB-0227             
1 48792U 21045AB  25242.13771353  .00000090  00000+0  20443-3 0  9991
2 48792  87.9052 317.2609 0001749  95.0549 265.0781 13.15547830206110
ONEWEB-0226             
1 48793U 21045AC  25242.13137686  .00000155  00000+0  37838-3 0  9995
2 48793  87.9059 317.2685 0001791  86.3418 273.7917 13.15547562206082
ONEWEB-0224             
1 48794U 21045AD  25241.94281787 -.00000041  00000+0 -14419-3 0  9992
2 48794  87.9055 317.3418 0001099 121.8737 238.2500 13.15548015205980
